[{"OBJECT_NAME":"WEILAI 1R","OBJECT_ID":"2019-093F","EPOCH":"2026-03-09T22:33:48.244608","MEAN_MOTION":14.997592,"ECCENTRICITY":0.00116762,"INCLINATION":97.7939,"RA_OF_ASC_NODE":158.7373,"ARG_OF_PERICENTER":23.5076,"MEAN_ANOMALY":336.6679,"EPHEMERIS_TYPE":0,"CLASSIFICATION_TYPE":"U","NORAD_CAT_ID":44884,"ELEMENT_SET_NO":999,"REV_AT_EPOCH":33754,"BSTAR":0.00050142794,"MEAN_MOTION_DOT":6.146e-5,"MEAN_MOTION_DDOT":0},{"OBJECT_NAME":"STARLINK-32918","OBJECT_ID":"2025-037L","EPOCH":"2026-03-09T22:03:31.625856","MEAN_MOTION":14.98330356,"ECCENTRICITY":0.00027164,"INCLINATION":70.004,"RA_OF_ASC_NODE":353.9874,"ARG_OF_PERICENTER":250.6935,"MEAN_ANOMALY":109.3931,"EPHEMERIS_TYPE":0,"CLASSIFICATION_TYPE":"U","NORAD_CAT_ID":63087,"ELEMENT_SET_NO":999,"REV_AT_EPOCH":5872,"BSTAR":0.00049256549,"MEAN_MOTION_DOT":5.789e-5,"MEAN_MOTION_DDOT":0}]
